OBJECT C                
1 57582U 23117C   25154.16631702  .00012309  00000+0  48181-3 0  9993
2 57582  97.4446 229.1320 0010164 139.4788 220.7209 15.25912013100534
